0 FENGYUN 1C DEB
1 32354U 99025CYX 13281.59151113  .00004098  00000-0  22343-2 0  2791
2 32354 102.9425 182.4842 0255822 093.3431 269.7024 13.97718625322813
0 FENGYUN 1C DEB
1 32354U 99025CYX 13282.95149977  .00004113  00000-0  22432-2 0  2806
2 32354 102.9397 184.3937 0255491 089.8665 273.1723 13.97730403323003
0 FENGYUN 1C DEB
1 32354U 99025CYX 13283.52412323  .00004197  00000-0  22891-2 0  2810
2 32354 102.9395 185.1944 0255256 088.7181 274.3662 13.97737203323086
0 FENGYUN 1C DEB
1 32354U 99025CYX 13283.52413016  .00007328  00000-0  39198-2 0  2817
2 32354 102.9428 185.1915 0256487 088.2396 274.8580 13.97738709323087
0 FENGYUN 1C DEB
1 32354U 99025CYX 13285.52827290  .00004441  00000-0  24217-2 0  2822
2 32354 102.9387 188.0067 0254719 084.0627 279.0230 13.97759135323364
0 FENGYUN 1C DEB
1 32354U 99025CYX 13286.53032341  .00004614  00000-0  25167-2 0  2837
2 32354 102.9460 189.4107 0254179 081.9399 281.0975 13.97770948323508
0 FENGYUN 1C DEB
1 32354U 99025CYX 13288.96386373  .00004763  00000-0  25932-2 0  2849
2 32354 102.9408 192.8321 0254540 075.8280 287.1097 13.97796545323849
0 FENGYUN 1C DEB
1 32354U 99025CYX 13290.96792377  .00004784  00000-0  26028-2 0  2858
2 32354 102.9397 195.6471 0254697 070.9616 291.8949 13.97816443324125
0 FENGYUN 1C DEB
1 32354U 99025CYX 13292.54251713  .00004964  00000-0  26862-2 0  2865
2 32354 102.9413 197.8658 0256682 067.1918 295.6229 13.97835397324340
0 FENGYUN 1C DEB
1 32354U 99025CYX 13293.61608994  .00004964  00000-0  26859-2 0  2878
2 32354 102.9413 199.3739 0256653 064.6637 298.0853 13.97846197324491
0 FENGYUN 1C DEB
1 32354U 99025CYX 13294.97593796  .00005047  00000-0  27320-2 0  2889
2 32354 102.9432 201.2813 0256260 061.4688 301.2111 13.97860979324682
